{
    "links": {
        "self": "http://www.neowsapp.com/rest/v1/neo/3825480?api_key=iIulBulltgU6a56xZRHN4H3l9WmuAYTsLGpBGhQ2"
    },
    "id": "3825480",
    "neo_reference_id": "3825480",
    "name": "(2018 MX6)",
    "designation": "2018 MX6",
    "nasa_jpl_url": "http://ssd.jpl.nasa.gov/sbdb.cgi?sstr=3825480",
    "absolute_magnitude_h": 24.8,
    "estimated_diameter": {
        "kilometers": {
            "estimated_diameter_min": 0.0291443905,
            "estimated_diameter_max": 0.0651688382
        },
        "meters": {
            "estimated_diameter_min": 29.1443904535,
            "estimated_diameter_max": 65.1688382168
        },
        "miles": {
            "estimated_diameter_min": 0.018109479,
            "estimated_diameter_max": 0.0404940262
        },
        "feet": {
            "estimated_diameter_min": 95.6180819754,
            "estimated_diameter_max": 213.8085311752
        }
    },
    "is_potentially_hazardous_asteroid": false,
    "close_approach_data": [
        {
            "close_approach_date": "2018-06-22",
            "close_approach_date_full": "2018-Jun-22 18:32",
            "epoch_date_close_approach": 1529692320000,
            "relative_velocity": {
                "kilometers_per_second": "7.0099642883",
                "kilometers_per_hour": "25235.8714379942",
                "miles_per_hour": "15680.5891165692"
            },
            "miss_distance": {
                "astronomical": "0.0256867197",
                "lunar": "9.9921339633",
                "kilometers": "3842678.554407039",
                "miles": "2387729.7332095782"
            },
            "orbiting_body": "Earth"
        },
        {
            "close_approach_date": "2079-05-21",
            "close_approach_date_full": "2079-May-21 14:09",
            "epoch_date_close_approach": 3451903740000,
            "relative_velocity": {
                "kilometers_per_second": "8.1943506012",
                "kilometers_per_hour": "29499.6621641537",
                "miles_per_hour": "18329.942859721"
            },
            "miss_distance": {
                "astronomical": "0.0626525388",
                "lunar": "24.3718375932",
                "kilometers": "9372686.354572356",
                "miles": "5823917.2421002728"
            },
            "orbiting_body": "Earth"
        }
    ],
    "orbital_data": {
        "orbit_id": "9",
        "orbit_determination_date": "2018-08-09 07:26:38",
        "first_observation_date": "2018-06-21",
        "last_observation_date": "2018-07-17",
        "data_arc_in_days": 26,
        "observations_used": 79,
        "orbit_uncertainty": "7",
        "minimum_orbit_intersection": ".0138013",
        "jupiter_tisserand_invariant": "3.716",
        "epoch_osculation": "2459000.5",
        "eccentricity": ".4784429037949963",
        "semi_major_axis": "1.97273536021214",
        "inclination": "4.115789475560089",
        "ascending_node_longitude": "258.4057098008402",
        "orbital_period": "1012.049304093004",
        "perihelion_distance": "1.028894126053176",
        "perihelion_argument": "2.49261207238658",
        "aphelion_distance": "2.916576594371104",
        "perihelion_time": "2459296.137831167975",
        "mean_anomaly": "254.8375155340351",
        "mean_motion": ".3557138951077398",
        "equinox": "J2000",
        "orbit_class": {
            "orbit_class_type": "AMO",
            "orbit_class_description": "Near-Earth asteroid orbits similar to that of 1221 Amor",
            "orbit_class_range": "1.017 AU < q (perihelion) < 1.3 AU"
        }
    },
    "is_sentry_object": false
}